{
  "type": "FeatureCollection",
  "features": [
    {
      "type": "Feature",
      "properties": {
        "norad_id": 31005,
        "name": "FENGYUN 1C DEB",
        "group": "fengyun-1c-debris",
        "lat": 61.32455003961698,
        "lon": -40.48333712415082,
        "alt_km": 1071.0217400334404,
        "timestamp": "2025-12-15T22:44:29.208021+00:00",
        "meta_object_name": "FENGYUN 1C DEB",
        "meta_object_id": "1999-025BCX",
        "meta_epoch": "2025-12-14T20:52:14.335968",
        "meta_mean_motion": 13.83285096,
        "meta_eccentricity": 0.01806535,
        "meta_inclination": 98.6129,
        "meta_ra_of_asc_node": 122.4413,
        "meta_arg_of_pericenter": 319.5816,
        "meta_mean_anomaly": 192.0559,
        "meta_ephemeris_type": 0,
        "meta_classification_type": "U",
        "meta_norad_cat_id": 31005,
        "meta_element_set_no": 999,
        "meta_rev_at_epoch": 94310,
        "meta_bstar": 0.0012186171,
        "meta_mean_motion_dot": 1.477e-05,
        "meta_mean_motion_ddot": 0,
        "tle_line1": "1 31005U 99025BCX 25348.86961037  .00001477  00000+0  12186-2 0  9994",
        "tle_line2": "2 31005  98.6129 122.4413 0180653 319.5816 192.0559 13.83285096943102"
      },
      "geometry": {
        "type": "Point",
        "coordinates": [
          -40.48333712415082,
          61.32455003961698
        ]
      }
    },
    {
      "type": "Feature",
      "properties": {
        "norad_id": 31007,
        "name": "FENGYUN 1C DEB",
        "group": "fengyun-1c-debris",
        "lat": -27.83689286835953,
        "lon": -14.027383727786722,
        "alt_km": 676.4768219332409,
        "timestamp": "2025-12-15T22:44:29.208032+00:00",
        "meta_object_name": "FENGYUN 1C DEB",
        "meta_object_id": "1999-025BCZ",
        "meta_epoch": "2025-12-15T04:45:36.249408",
        "meta_mean_motion": 14.58703127,
        "meta_eccentricity": 0.00672589,
        "meta_inclination": 98.0878,
        "meta_ra_of_asc_node": 340.9369,
        "meta_arg_of_pericenter": 30.5648,
        "meta_mean_anomaly": 329.9444,
        "meta_ephemeris_type": 0,
        "meta_classification_type": "U",
        "meta_norad_cat_id": 31007,
        "meta_element_set_no": 999,
        "meta_rev_at_epoch": 98130,
        "meta_bstar": 0.0014693632,
        "meta_mean_motion_dot": 7.03e-05,
        "meta_mean_motion_ddot": 0,
        "tle_line1": "1 31007U 99025BCZ 25349.19833622  .00007030  00000+0  14694-2 0  9998",
        "tle_line2": "2 31007  98.0878 340.9369 0067258  30.5648 329.9444 14.58703127981305"
      },
      "geometry": {
        "type": "Point",
        "coordinates": [
          -14.027383727786722,
          -27.83689286835953
        ]
      }
    },
    {
      "type": "Feature",
      "properties": {
        "norad_id": 31009,
        "name": "FENGYUN 1C DEB",
        "group": "fengyun-1c-debris",
        "lat": -67.90062059197977,
        "lon": 8.37671372663183,
        "alt_km": 881.6029209368407,
        "timestamp": "2025-12-15T22:44:29.208042+00:00",
        "meta_object_name": "FENGYUN 1C DEB",
        "meta_object_id": "1999-025BDB",
        "meta_epoch": "2025-12-14T23:11:59.819712",
        "meta_mean_motion": 14.0036528,
        "meta_eccentricity": 0.00529129,
        "meta_inclination": 98.8972,
        "meta_ra_of_asc_node": 344.7302,
        "meta_arg_of_pericenter": 230.9436,
        "meta_mean_anomaly": 156.5904,
        "meta_ephemeris_type": 0,
        "meta_classification_type": "U",
        "meta_norad_cat_id": 31009,
        "meta_element_set_no": 999,
        "meta_rev_at_epoch": 95892,
        "meta_bstar": 0.00012428162,
        "meta_mean_motion_dot": 1.43e-06,
        "meta_mean_motion_ddot": 0,
        "tle_line1": "1 31009U 99025BDB 25348.96666458  .00000143  00000+0  12428-3 0  9997",
        "tle_line2": "2 31009  98.8972 344.7302 0052912 230.9436 156.5904 14.00365280958929"
      },
      "geometry": {
        "type": "Point",
        "coordinates": [
          8.37671372663183,
          -67.90062059197977
        ]
      }
    },
    {
      "type": "Feature",
      "properties": {
        "norad_id": 31010,
        "name": "FENGYUN 1C DEB",
        "group": "fengyun-1c-debris",
        "lat": -70.9476060564953,
        "lon": 174.97740927743212,
        "alt_km": 772.424898589963,
        "timestamp": "2025-12-15T22:44:29.208052+00:00",
        "meta_object_name": "FENGYUN 1C DEB",
        "meta_object_id": "1999-025BDC",
        "meta_epoch": "2025-12-13T08:46:34.415040",
        "meta_mean_motion": 14.25824069,
        "meta_eccentricity": 0.01132946,
        "meta_inclination": 101.7244,
        "meta_ra_of_asc_node": 134.5693,
        "meta_arg_of_pericenter": 352.8328,
        "meta_mean_anomaly": 7.1217,
        "meta_ephemeris_type": 0,
        "meta_classification_type": "U",
        "meta_norad_cat_id": 31010,
        "meta_element_set_no": 999,
        "meta_rev_at_epoch": 95638,
        "meta_bstar": 0.0055012585,
        "meta_mean_motion_dot": 0.00013958,
        "meta_mean_motion_ddot": 0,
        "tle_line1": "1 31010U 99025BDC 25347.36567610  .00013958  00000+0  55013-2 0  9996",
        "tle_line2": "2 31010 101.7244 134.5693 0113294 352.8328   7.1217 14.25824069956388"
      },
      "geometry": {
        "type": "Point",
        "coordinates": [
          174.97740927743212,
          -70.9476060564953
        ]
      }
    },
    {
      "type": "Feature",
      "properties": {
        "norad_id": 31012,
        "name": "FENGYUN 1C DEB",
        "group": "fengyun-1c-debris",
        "lat": 50.76212237010428,
        "lon": -122.96511315700877,
        "alt_km": 851.5903665101778,
        "timestamp": "2025-12-15T22:44:29.208063+00:00",
        "meta_object_name": "FENGYUN 1C DEB",
        "meta_object_id": "1999-025BDE",
        "meta_epoch": "2025-12-14T23:01:27.105600",
        "meta_mean_motion": 14.27865058,
        "meta_eccentricity": 0.00813485,
        "meta_inclination": 98.9116,
        "meta_ra_of_asc_node": 247.1038,
        "meta_arg_of_pericenter": 244.8987,
        "meta_mean_anomaly": 129.7383,
        "meta_ephemeris_type": 0,
        "meta_classification_type": "U",
        "meta_norad_cat_id": 31012,
        "meta_element_set_no": 999,
        "meta_rev_at_epoch": 97779,
        "meta_bstar": 0.0001944363,
        "meta_mean_motion_dot": 4.51e-06,
        "meta_mean_motion_ddot": 0,
        "tle_line1": "1 31012U 99025BDE 25348.95934150  .00000451  00000+0  19444-3 0  9994",
        "tle_line2": "2 31012  98.9116 247.1038 0081348 244.8987 129.7383 14.27865058977792"
      },
      "geometry": {
        "type": "Point",
        "coordinates": [
          -122.96511315700877,
          50.76212237010428
        ]
      }
    },
    {
      "type": "Feature",
      "properties": {
        "norad_id": 31014,
        "name": "FENGYUN 1C DEB",
        "group": "fengyun-1c-debris",
        "lat": -29.759127467792837,
        "lon": -29.426211210911475,
        "alt_km": 957.3633240453428,
        "timestamp": "2025-12-15T22:44:29.208073+00:00",
        "meta_object_name": "FENGYUN 1C DEB",
        "meta_object_id": "1999-025BDG",
        "meta_epoch": "2025-12-14T21:16:31.516896",
        "meta_mean_motion": 13.98492485,
        "meta_eccentricity": 0.00878957,
        "meta_inclination": 98.8691,
        "meta_ra_of_asc_node": 324.4258,
        "meta_arg_of_pericenter": 187.4548,
        "meta_mean_anomaly": 202.7471,
        "meta_ephemeris_type": 0,
        "meta_classification_type": "U",
        "meta_norad_cat_id": 31014,
        "meta_element_set_no": 999,
        "meta_rev_at_epoch": 95866,
        "meta_bstar": 0.00018808423,
        "meta_mean_motion_dot": 2.36e-06,
        "meta_mean_motion_ddot": 0,
        "tle_line1": "1 31014U 99025BDG 25348.88647589  .00000236  00000+0  18808-3 0  9999",
        "tle_line2": "2 31014  98.8691 324.4258 0087895 187.4548 202.7471 13.98492485958664"
      },
      "geometry": {
        "type": "Point",
        "coordinates": [
          -29.426211210911475,
          -29.759127467792837
        ]
      }
    },
    {
      "type": "Feature",
      "properties": {
        "norad_id": 31016,
        "name": "FENGYUN 1C DEB",
        "group": "fengyun-1c-debris",
        "lat": 81.35700426305698,
        "lon": -96.80490975112326,
        "alt_km": 862.2324288059508,
        "timestamp": "2025-12-15T22:44:29.208083+00:00",
        "meta_object_name": "FENGYUN 1C DEB",
        "meta_object_id": "1999-025BDJ",
        "meta_epoch": "2025-12-15T00:36:30.570912",
        "meta_mean_motion": 14.30497996,
        "meta_eccentricity": 0.01119771,
        "meta_inclination": 98.4363,
        "meta_ra_of_asc_node": 4.7836,
        "meta_arg_of_pericenter": 267.3458,
        "meta_mean_anomaly": 118.225,
        "meta_ephemeris_type": 0,
        "meta_classification_type": "U",
        "meta_norad_cat_id": 31016,
        "meta_element_set_no": 999,
        "meta_rev_at_epoch": 97503,
        "meta_bstar": 0.00029879654,
        "meta_mean_motion_dot": 7.89e-06,
        "meta_mean_motion_ddot": 0,
        "tle_line1": "1 31016U 99025BDJ 25349.02535383  .00000789  00000+0  29880-3 0  9991",
        "tle_line2": "2 31016  98.4363   4.7836 0111977 267.3458 118.2250 14.30497996975030"
      },
      "geometry": {
        "type": "Point",
        "coordinates": [
          -96.80490975112326,
          81.35700426305698
        ]
      }
    }
  ]
}